*******************************************************************************
JPL/HORIZONS                       3 Juno                  2011-May-07 08:03:42
Rec #:     3 (+COV)   Soln.date: 2011-Mar-23_16:34:37   # obs: 6524 (1824-2011)
 
FK5/J2000.0 helio. ecliptic osc. elements (AU, DAYS, DEG, period=Julian yrs):  
 
  EPOCH=  2445526.5 ! 1983-Jul-11.00 (CT)         Residual RMS= .44139         
    EC= .2574513394279047  QR= 1.981697686149054  TP= 2445699.395846821        
    OM= 170.5822256571077  W= 247.0171302525239   IN= 12.99556343532671        
    A= 2.668778211278785   MA= 320.9141185813836  ADIST= 3.355858736408516     
    PER= 4.3599            N= .226066052          ANGMOM= .027154745           
    DAN= 2.77038           DDN= 2.26428           L= 57.0601599                
    B= -11.9480867                                TP= 1983-Dec-30.8958468      
 
Physical parameters (KM, SEC, rotational period in hours):
    GM= n.a.               RAD= 116.96            ROTPER= 7.21                 
    H= 5.33                G= .320                B-V= .824                    
                           ALBEDO= .2383          STYP= Sk                     
 
ASTEROID comments: 
1: soln ref.= JPL#87, OCC=0
2: source=ORB
*******************************************************************************
 
 
*******************************************************************************
Ephemeris / WWW_USER Sat May  7 08:03:42 2011  Pasadena, USA     / Horizons    
*******************************************************************************
Target body name: 3 Juno                          {source: JPL#87}
Center body name: Earth (399)                     {source: DE405}
Center-site name: GEOCENTRIC
*******************************************************************************
Start time      : A.D. 2011-Apr-18 00:00:00.0000 UT      
Stop  time      : A.D. 2020-May-18 00:00:00.0000 UT      
Step-size       : 1440 minutes
*******************************************************************************
Target pole/equ : No model available
Target radii    : 117.0 km                                                     
Center geodetic : 0.00000000,0.00000000,0.0000000 {E-lon(deg),Lat(deg),Alt(km)}
Center cylindric: 0.00000000,0.00000000,0.0000000 {E-lon(deg),Dxy(km),Dz(km)}
Center pole/equ : High-precision EOP model        {East-longitude +}
Center radii    : 6378.1 x 6378.1 x 6356.8 km     {Equator, meridian, pole}    
Target primary  : Sun                             {source: DE405}
Interfering body: MOON (Req= 1737.400) km         {source: DE405}
Deflecting body : Sun, EARTH                      {source: DE405}
Deflecting GMs  : 1.3271E+11, 3.9860E+05 km^3/s^2                              
Small perturbers: Ceres, Pallas, Vesta            {source: SB405-CPV-2}
Small body GMs  : 6.32E+01, 1.43E+01, 1.78E+01 km^3/s^2                        
Atmos refraction: NO (AIRLESS)
RA format       : HMS
Time format     : CAL 
EOP file        : eop.110506.p110728                                           
EOP coverage    : DATA-BASED 1962-JAN-20 TO 2011-MAY-06. PREDICTS-> 2011-JUL-27
Units conversion: 1 AU= 149597870.691 km, c= 299792.458 km/s, 1 day= 86400.0 s 
Table cut-offs 1: Elevation (-90.0deg=NO ),Airmass (>38.000=NO), Daylight (NO )
Table cut-offs 2: Solar Elongation (  0.0,180.0=NO )                           
*******************************************************************************
Initial FK5/J2000.0 heliocentric ecliptic osculating elements (AU, DAYS, DEG):
  EPOCH=  2445526.5 ! 1983-Jul-11.00 (CT)         Residual RMS= .44139         
    EC= .2574513394279047  QR= 1.981697686149054  TP= 2445699.395846821        
    OM= 170.5822256571077  W= 247.0171302525239   IN= 12.99556343532671        
Asteroid physical parameters (KM, SEC, rotational period in hours):
    GM= n.a.               RAD= 116.96            ROTPER= 7.21                 
    H= 5.33                G= .320                B-V= .824                    
                           ALBEDO= .2383          STYP= Sk                     
*************************************************************************************************
 Date__(UT)__HR:MN     R.A._(ICRF/J2000.0)_DEC R.A.__(a-apparent)__DEC  APmag  S-brt   Illu% Cnst
*************************************************************************************************
$$SOE
 2016-Jan-18 00:00     14 38 55.55 -08 16 22.1 14 39 46.57 -08 20 23.5  11.10   5.82  97.629  Vir
 2016-Jan-19 00:00     14 39 47.16 -08 16 41.6 14 40 38.22 -08 20 42.3  11.10   5.82  97.616  Vir
 2016-Jan-20 00:00     14 40 38.00 -08 16 54.7 14 41 29.10 -08 20 54.8  11.09   5.82  97.604  Vir
 2016-Jan-21 00:00     14 41 28.05 -08 17 01.3 14 42 19.19 -08 21 00.8  11.08   5.82  97.593  Vir
 2016-Jan-22 00:00     14 42 17.31 -08 17 01.3 14 43 08.49 -08 21 00.3  11.08   5.83  97.582  Vir
 2016-Jan-23 00:00     14 43 05.77 -08 16 54.9 14 43 56.99 -08 20 53.3  11.07   5.83  97.573  Vir
 2016-Jan-24 00:00     14 43 53.40 -08 16 41.9 14 44 44.66 -08 20 39.7  11.06   5.83  97.565  Vir
 2016-Jan-25 00:00     14 44 40.20 -08 16 22.3 14 45 31.49 -08 20 19.6  11.06   5.83  97.557  Vir
 2016-Jan-26 00:00     14 45 26.16 -08 15 56.0 14 46 17.48 -08 19 52.8  11.05   5.83  97.551  Vir
 2016-Jan-27 00:00     14 46 11.26 -08 15 23.1 14 47 02.61 -08 19 19.3  11.04   5.84  97.545  Vir
 2016-Jan-28 00:00     14 46 55.48 -08 14 43.4 14 47 46.86 -08 18 39.1  11.03   5.84  97.540  Lib
 2016-Jan-29 00:00     14 47 38.82 -08 13 57.0 14 48 30.23 -08 17 52.1  11.03   5.84  97.537  Lib
 2016-Jan-30 00:00     14 48 21.26 -08 13 03.9 14 49 12.69 -08 16 58.4  11.02   5.84  97.534  Lib
 2016-Jan-31 00:00     14 49 02.78 -08 12 03.9 14 49 54.24 -08 15 58.0  11.01   5.84  97.533  Lib
 2016-Feb-01 00:00     14 49 43.38 -08 10 57.1 14 50 34.86 -08 14 50.6  11.00   5.84  97.533  Lib
 2016-Feb-02 00:00     14 50 23.03 -08 09 43.5 14 51 14.54 -08 13 36.5  10.99   5.84  97.533  Lib
 2016-Feb-03 00:00     14 51 01.72 -08 08 22.9 14 51 53.26 -08 12 15.5  10.98   5.84  97.535  Lib
 2016-Feb-04 00:00     14 51 39.43 -08 06 55.5 14 52 31.00 -08 10 47.6  10.98   5.84  97.538  Lib
 2016-Feb-05 00:00     14 52 16.16 -08 05 21.1 14 53 07.76 -08 09 12.7  10.97   5.85  97.542  Lib
 2016-Feb-06 00:00     14 52 51.88 -08 03 39.7 14 53 43.51 -08 07 31.0  10.96   5.85  97.547  Lib
 2016-Feb-07 00:00     14 53 26.58 -08 01 51.4 14 54 18.24 -08 05 42.2  10.95   5.85  97.554  Lib
 2016-Feb-08 00:00     14 54 00.25 -07 59 56.0 14 54 51.94 -08 03 46.5  10.94   5.85  97.561  Lib
 2016-Feb-09 00:00     14 54 32.87 -07 57 53.6 14 55 24.59 -08 01 43.8  10.93   5.85  97.570  Lib
 2016-Feb-10 00:00     14 55 04.44 -07 55 44.2 14 55 56.17 -07 59 34.0  10.92   5.85  97.580  Lib
 2016-Feb-11 00:00     14 55 34.92 -07 53 27.8 14 56 26.67 -07 57 17.3  10.91   5.85  97.591  Lib
 2016-Feb-12 00:00     14 56 04.33 -07 51 04.4 14 56 56.09 -07 54 53.4  10.90   5.85  97.603  Lib
 2016-Feb-13 00:00     14 56 32.63 -07 48 33.9 14 57 24.41 -07 52 22.6  10.89   5.85  97.616  Lib
 2016-Feb-14 00:00     14 56 59.83 -07 45 56.4 14 57 51.63 -07 49 44.7  10.88   5.85  97.631  Lib
 2016-Feb-15 00:00     14 57 25.91 -07 43 11.8 14 58 17.72 -07 46 59.9  10.87   5.85  97.647  Lib
 2016-Feb-16 00:00     14 57 50.86 -07 40 20.3 14 58 42.69 -07 44 08.1  10.86   5.85  97.664  Lib
 2016-Feb-17 00:00     14 58 14.67 -07 37 21.8 14 59 06.52 -07 41 09.3  10.85   5.84  97.682  Lib
 2016-Feb-18 00:00     14 58 37.32 -07 34 16.3 14 59 29.20 -07 38 03.6  10.84   5.84  97.701  Lib
 2016-Feb-19 00:00     14 58 58.82 -07 31 03.8 14 59 50.72 -07 34 50.9  10.83   5.84  97.722  Lib
 2016-Feb-20 00:00     14 59 19.15 -07 27 44.4 15 00 11.07 -07 31 31.3  10.81   5.84  97.743  Lib
 2016-Feb-21 00:00     14 59 38.29 -07 24 18.0 15 00 30.23 -07 28 04.8  10.80   5.84  97.766  Lib
 2016-Feb-22 00:00     14 59 56.25 -07 20 44.8 15 00 48.19 -07 24 31.4  10.79   5.84  97.790  Lib
 2016-Feb-23 00:00     15 00 12.99 -07 17 04.6 15 01 04.95 -07 20 51.1  10.78   5.84  97.815  Lib
 2016-Feb-24 00:00     15 00 28.53 -07 13 17.6 15 01 20.49 -07 17 04.0  10.77   5.84  97.841  Lib
 2016-Feb-25 00:00     15 00 42.84 -07 09 23.7 15 01 34.80 -07 13 10.0  10.76   5.83  97.868  Lib
 2016-Feb-26 00:00     15 00 55.91 -07 05 23.1 15 01 47.88 -07 09 09.2  10.74   5.83  97.897  Lib
 2016-Feb-27 00:00     15 01 07.74 -07 01 15.6 15 01 59.71 -07 05 01.7  10.73   5.83  97.926  Lib
 2016-Feb-28 00:00     15 01 18.31 -06 57 01.4 15 02 10.29 -07 00 47.4  10.72   5.83  97.956  Lib
 2016-Feb-29 00:00     15 01 27.62 -06 52 40.6 15 02 19.60 -06 56 26.5  10.71   5.83  97.988  Lib
 2016-Mar-01 00:00     15 01 35.65 -06 48 13.0 15 02 27.64 -06 51 58.9  10.70   5.82  98.020  Lib
 2016-Mar-02 00:00     15 01 42.40 -06 43 38.9 15 02 34.40 -06 47 24.8  10.68   5.82  98.054  Lib
 2016-Mar-03 00:00     15 01 47.85 -06 38 58.2 15 02 39.86 -06 42 44.1  10.67   5.82  98.088  Lib
 2016-Mar-04 00:00     15 01 52.01 -06 34 11.1 15 02 44.03 -06 37 57.1  10.66   5.82  98.124  Lib
 2016-Mar-05 00:00     15 01 54.86 -06 29 17.5 15 02 46.88 -06 33 03.6  10.64   5.81  98.160  Lib
 2016-Mar-06 00:00     15 01 56.39 -06 24 17.7 15 02 48.43 -06 28 03.8  10.63   5.81  98.197  Lib
 2016-Mar-07 00:00     15 01 56.61 -06 19 11.5 15 02 48.65 -06 22 57.8  10.62   5.81  98.235  Lib
 2016-Mar-08 00:00     15 01 55.51 -06 13 59.2 15 02 47.55 -06 17 45.7  10.60   5.80  98.273  Lib
 2016-Mar-09 00:00     15 01 53.08 -06 08 40.9 15 02 45.11 -06 12 27.5  10.59   5.80  98.313  Lib
 2016-Mar-10 00:00     15 01 49.33 -06 03 16.5 15 02 41.35 -06 07 03.3  10.58   5.80  98.353  Lib
 2016-Mar-11 00:00     15 01 44.25 -05 57 46.4 15 02 36.27 -06 01 33.3  10.56   5.79  98.393  Lib
 2016-Mar-12 00:00     15 01 37.85 -05 52 10.5 15 02 29.86 -05 55 57.6  10.55   5.79  98.435  Lib
 2016-Mar-13 00:00     15 01 30.13 -05 46 29.1 15 02 22.14 -05 50 16.4  10.54   5.78  98.477  Lib
